start=new Date('2022-03-17T00:00:00.000Z').valueOf();
sats=[{"COUNTRY_CODE":"US","TLE_LINE2":"2 51463  53.2176 329.9648 0001698  43.1948 164.4054 15.52951250  3696","OBJECT_NAME":"STARLINK-3419","OBJECT_TYPE":"PAYLOAD","CLASSIFICATION_TYPE":"U","TLE_LINE1":"1 51463U 22010H   22075.83334491 -.00711794  00000-0 -12281-1 0  9991","REF_FRAME":"TEME","MEAN_MOTION":"15.52951250","PERIAPSIS":"406.964","EPOCH":"2022-03-16T20:00:01.000224","MEAN_MOTION_DDOT":"0.0000000000000","MEAN_ELEMENT_THEORY":"SGP4","ARG_OF_PERICENTER":"43.1948","TIME_SYSTEM":"UTC","ECCENTRICITY":"0.00016980","MEAN_MOTION_DOT":"-0.00711794","SEMIMAJOR_AXIS":"6786.252","OBJECT_ID":"2022-010H","ELEMENT_SET_NO":"999","EPHEMERIS_TYPE":"0","GP_ID":"198924926","FILE":"3362094","BSTAR":"-0.01228100000000","APOAPSIS":"409.269","CENTER_NAME":"EARTH","REV_AT_EPOCH":"369","RCS_SIZE":"LARGE","NORAD_CAT_ID":"51463","INCLINATION":"53.2176","SITE":"AFETR","RA_OF_ASC_NODE":"329.9648","DECAY_DATE":null,"MEAN_ANOMALY":"164.4054","PERIOD":"92.727","LAUNCH_DATE":"2022-02-03"},{"CENTER_NAME":"EARTH","APOAPSIS":"409.348","GP_ID":"198924825","FILE":"3362094","BSTAR":"-0.01236000000000","EPHEMERIS_TYPE":"0","ELEMENT_SET_NO":"999","MEAN_ANOMALY":"67.8454","PERIOD":"92.732","LAUNCH_DATE":"2022-02-03","DECAY_DATE":null,"SITE":"AFETR","RA_OF_ASC_NODE":"330.0779","INCLINATION":"53.2177","NORAD_CAT_ID":"51464","RCS_SIZE":"LARGE","REV_AT_EPOCH":"369","MEAN_MOTION_DDOT":"0.0000000000000","MEAN_ELEMENT_THEORY":"SGP4","PERIAPSIS":"407.424","EPOCH":"2022-03-16T20:00:01.000224","MEAN_MOTION":"15.52858751","TLE_LINE1":"1 51464U 22010J   22075.83334491 -.00713730  00000-0 -12360-1 0  9992","CLASSIFICATION_TYPE":"U","REF_FRAME":"TEME","OBJECT_TYPE":"PAYLOAD","OBJECT_NAME":"STARLINK-3189","COUNTRY_CODE":"US","TLE_LINE2":"2 51464  53.2177 330.0779 0001418  49.3778  67.8454 15.52858751  3697","OBJECT_ID":"2022-010J","SEMIMAJOR_AXIS":"6786.521","ARG_OF_PERICENTER":"49.3778","TIME_SYSTEM":"UTC","ECCENTRICITY":"0.00014180","MEAN_MOTION_DOT":"-0.00713730"},{"CENTER_NAME":"EARTH","APOAPSIS":"409.133","BSTAR":"-0.01229300000000","FILE":"3362094","GP_ID":"198924624","EPHEMERIS_TYPE":"0","ELEMENT_SET_NO":"999","LAUNCH_DATE":"2022-02-03","PERIOD":"92.725","MEAN_ANOMALY":"84.2668","DECAY_DATE":null,"RA_OF_ASC_NODE":"330.0767","SITE":"AFETR","INCLINATION":"53.2177","NORAD_CAT_ID":"51465","RCS_SIZE":"LARGE","REV_AT_EPOCH":"369","MEAN_MOTION_DDOT":"0.0000000000000","MEAN_ELEMENT_THEORY":"SGP4","EPOCH":"2022-03-16T20:00:01.000224","PERIAPSIS":"406.896","MEAN_MOTION":"15.52986366","REF_FRAME":"TEME","CLASSIFICATION_TYPE":"U","TLE_LINE1":"1 51465U 22010K   22075.83334491 -.00713258  00000-0 -12293-1 0  9993","OBJECT_NAME":"STARLINK-3401","OBJECT_TYPE":"PAYLOAD","TLE_LINE2":"2 51465  53.2177 330.0767 0001648  39.6915  84.2668 15.52986366  3699","COUNTRY_CODE":"US","OBJECT_ID":"2022-010K","SEMIMAJOR_AXIS":"6786.149","MEAN_MOTION_DOT":"-0.00713258","ECCENTRICITY":"0.00016480","ARG_OF_PERICENTER":"39.6915","TIME_SYSTEM":"UTC"},{"RCS_SIZE":"LARGE","REV_AT_EPOCH":"369","DECAY_DATE":null,"MEAN_ANOMALY":"61.9346","LAUNCH_DATE":"2022-02-03","PERIOD":"92.861","NORAD_CAT_ID":"51467","INCLINATION":"53.2177","SITE":"AFETR","RA_OF_ASC_NODE":"329.9626","GP_ID":"198925108","BSTAR":"-0.01336100000000","FILE":"3362094","APOAPSIS":"415.885","EPHEMERIS_TYPE":"0","ELEMENT_SET_NO":"999","CENTER_NAME":"EARTH","SEMIMAJOR_AXIS":"6792.807","ARG_OF_PERICENTER":"33.1468","TIME_SYSTEM":"UTC","ECCENTRICITY":"0.00017860","MEAN_MOTION_DOT":"-0.00722985","OBJECT_ID":"2022-010M","COUNTRY_CODE":"US","TLE_LINE2":"2 51467  53.2177 329.9626 0001786  33.1468  61.9346 15.50703787  3694","OBJECT_NAME":"STARLINK-3178","OBJECT_TYPE":"PAYLOAD","PERIAPSIS":"413.459","EPOCH":"2022-03-16T20:00:01.000224","MEAN_ELEMENT_THEORY":"SGP4","MEAN_MOTION_DDOT":"0.0000000000000","TLE_LINE1":"1 51467U 22010M   22075.83334491 -.00722985  00000-0 -13361-1 0  9999","CLASSIFICATION_TYPE":"U","REF_FRAME":"TEME","MEAN_MOTION":"15.50703787"},{"DECAY_DATE":null,"MEAN_ANOMALY":"139.4920","LAUNCH_DATE":"2022-02-03","PERIOD":"92.742","NORAD_CAT_ID":"51468","INCLINATION":"53.2176","SITE":"AFETR","RA_OF_ASC_NODE":"329.9676","RCS_SIZE":"LARGE","REV_AT_EPOCH":"369","CENTER_NAME":"EARTH","GP_ID":"198925308","BSTAR":"-0.01239600000000","FILE":"3362094","APOAPSIS":"409.872","EPHEMERIS_TYPE":"0","ELEMENT_SET_NO":"999","OBJECT_ID":"2022-010N","SEMIMAJOR_AXIS":"6786.997","ARG_OF_PERICENTER":"54.5785","ECCENTRICITY":"0.00014880","TIME_SYSTEM":"UTC","MEAN_MOTION_DOT":"-0.00711763","PERIAPSIS":"407.852","EPOCH":"2022-03-16T20:00:01.000224","MEAN_ELEMENT_THEORY":"SGP4","MEAN_MOTION_DDOT":"0.0000000000000","CLASSIFICATION_TYPE":"U","TLE_LINE1":"1 51468U 22010N   22075.83334491 -.00711763  00000-0 -12396-1 0  9999","REF_FRAME":"TEME","MEAN_MOTION":"15.52695471","COUNTRY_CODE":"US","TLE_LINE2":"2 51468  53.2176 329.9676 0001488  54.5785 139.4920 15.52695471  3698","OBJECT_TYPE":"PAYLOAD","OBJECT_NAME":"STARLINK-3174"},{"TIME_SYSTEM":"UTC","ARG_OF_PERICENTER":"52.5533","ECCENTRICITY":"0.00013540","MEAN_MOTION_DOT":"-0.00713952","SEMIMAJOR_AXIS":"6786.893","OBJECT_ID":"2022-010P","OBJECT_NAME":"STARLINK-3182","OBJECT_TYPE":"PAYLOAD","COUNTRY_CODE":"US","TLE_LINE2":"2 51469  53.2177 330.0790 0001354  52.5533  57.8963 15.52731032  3695","MEAN_MOTION":"15.52731032","TLE_LINE1":"1 51469U 22010P   22075.83334491 -.00713952  00000-0 -12422-1 0  9992","CLASSIFICATION_TYPE":"U","REF_FRAME":"TEME","MEAN_ELEMENT_THEORY":"SGP4","MEAN_MOTION_DDOT":"0.0000000000000","PERIAPSIS":"407.839","EPOCH":"2022-03-16T20:00:01.000224","REV_AT_EPOCH":"369","RCS_SIZE":"LARGE","SITE":"AFETR","RA_OF_ASC_NODE":"330.0790","INCLINATION":"53.2177","NORAD_CAT_ID":"51469","MEAN_ANOMALY":"57.8963","PERIOD":"92.740","LAUNCH_DATE":"2022-02-03","DECAY_DATE":null,"EPHEMERIS_TYPE":"0","ELEMENT_SET_NO":"999","APOAPSIS":"409.677","GP_ID":"198925207","FILE":"3362094","BSTAR":"-0.01242200000000","CENTER_NAME":"EARTH"},{"NORAD_CAT_ID":"51471","INCLINATION":"53.2153","RA_OF_ASC_NODE":"329.7402","SITE":"AFETR","DECAY_DATE":null,"LAUNCH_DATE":"2022-02-03","PERIOD":"91.989","MEAN_ANOMALY":"284.2443","REV_AT_EPOCH":"724","RCS_SIZE":"MEDIUM","CENTER_NAME":"EARTH","ELEMENT_SET_NO":"999","EPHEMERIS_TYPE":"0","FILE":"3361689","BSTAR":"-0.00368820000000","GP_ID":"198892031","APOAPSIS":"373.086","OBJECT_ID":"2022-010R","MEAN_MOTION_DOT":"-0.00359467","ARG_OF_PERICENTER":"75.8738","ECCENTRICITY":"0.00014750","TIME_SYSTEM":"UTC","SEMIMAJOR_AXIS":"6750.226","REF_FRAME":"TEME","TLE_LINE1":"1 51471U 22010R   22075.42247189 -.00359467  00000-0 -36882-2 0  9991","CLASSIFICATION_TYPE":"U","MEAN_MOTION":"15.65399957","EPOCH":"2022-03-16T10:08:21.571296","PERIAPSIS":"371.095","MEAN_MOTION_DDOT":"0.0000000000000","MEAN_ELEMENT_THEORY":"SGP4","TLE_LINE2":"2 51471  53.2153 329.7402 0001475  75.8738 284.2443 15.65399957  7240","COUNTRY_CODE":"US","OBJECT_TYPE":"PAYLOAD","OBJECT_NAME":"STARLINK-3165"},{"SITE":"AFETR","RA_OF_ASC_NODE":"329.9662","NORAD_CAT_ID":"51472","INCLINATION":"53.2176","MEAN_ANOMALY":"154.7145","PERIOD":"92.734","LAUNCH_DATE":"2022-02-03","DECAY_DATE":null,"REV_AT_EPOCH":"369","RCS_SIZE":"LARGE","CENTER_NAME":"EARTH","EPHEMERIS_TYPE":"0","ELEMENT_SET_NO":"999","APOAPSIS":"409.598","GP_ID":"198924728","BSTAR":"-0.01233800000000","FILE":"3362094","OBJECT_ID":"2022-010S","ARG_OF_PERICENTER":"46.1401","ECCENTRICITY":"0.00016330","TIME_SYSTEM":"UTC","MEAN_MOTION_DOT":"-0.00711765","SEMIMAJOR_AXIS":"6786.624","MEAN_MOTION":"15.52823357","CLASSIFICATION_TYPE":"U","TLE_LINE1":"1 51472U 22010S   22075.83334491 -.00711765  00000-0 -12338-1 0  9992","REF_FRAME":"TEME","MEAN_ELEMENT_THEORY":"SGP4","MEAN_MOTION_DDOT":"0.0000000000000","PERIAPSIS":"407.381","EPOCH":"2022-03-16T20:00:01.000224","OBJECT_NAME":"STARLINK-3415","OBJECT_TYPE":"PAYLOAD","COUNTRY_CODE":"US","TLE_LINE2":"2 51472  53.2176 329.9662 0001633  46.1401 154.7145 15.52823357  3697"},{"ARG_OF_PERICENTER":"62.3120","TIME_SYSTEM":"UTC","ECCENTRICITY":"0.00011090","MEAN_MOTION_DOT":"-0.00715979","SEMIMAJOR_AXIS":"6733.569","OBJECT_ID":"2022-016A","OBJECT_TYPE":"PAYLOAD","OBJECT_NAME":"STARLINK-3528","COUNTRY_CODE":"US","TLE_LINE2":"2 51714  53.2174  24.5997 0001109  62.3120 339.5424 15.71212110  3681","MEAN_MOTION":"15.71212110","TLE_LINE1":"1 51714U 22016A   22075.83334491 -.00715979  00000-0 -60385-2 0  9994","CLASSIFICATION_TYPE":"U","REF_FRAME":"TEME","MEAN_ELEMENT_THEORY":"SGP4","MEAN_MOTION_DDOT":"0.0000000000000","PERIAPSIS":"354.687","EPOCH":"2022-03-16T20:00:01.000224","REV_AT_EPOCH":"368","RCS_SIZE":"LARGE","SITE":"AFETR","RA_OF_ASC_NODE":"24.5997","INCLINATION":"53.2174","NORAD_CAT_ID":"51714","MEAN_ANOMALY":"339.5424","PERIOD":"91.649","LAUNCH_DATE":"2022-02-21","DECAY_DATE":null,"EPHEMERIS_TYPE":"0","ELEMENT_SET_NO":"999","APOAPSIS":"356.180","GP_ID":"198925132","FILE":"3362094","BSTAR":"-0.00603850000000","CENTER_NAME":"EARTH"},{"OBJECT_ID":"2022-016B","MEAN_MOTION_DOT":"-0.00716147","TIME_SYSTEM":"UTC","ARG_OF_PERICENTER":"67.3783","ECCENTRICITY":"0.00010710","SEMIMAJOR_AXIS":"6732.473","MEAN_MOTION":"15.71595648","REF_FRAME":"TEME","CLASSIFICATION_TYPE":"U","TLE_LINE1":"1 51715U 22016B   22075.83334491 -.00716147  00000-0 -59426-2 0  9997","MEAN_ELEMENT_THEORY":"SGP4","MEAN_MOTION_DDOT":"0.0000000000000","EPOCH":"2022-03-16T20:00:01.000224","PERIAPSIS":"353.617","OBJECT_TYPE":"PAYLOAD","OBJECT_NAME":"STARLINK-3533","TLE_LINE2":"2 51715  53.2174  24.5954 0001071  67.3783 338.0193 15.71595648  3680","COUNTRY_CODE":"US","RA_OF_ASC_NODE":"24.5954","SITE":"AFETR","INCLINATION":"53.2174","NORAD_CAT_ID":"51715","PERIOD":"91.627","LAUNCH_DATE":"2022-02-21","MEAN_ANOMALY":"338.0193","DECAY_DATE":null,"REV_AT_EPOCH":"368","RCS_SIZE":"LARGE","CENTER_NAME":"EARTH","EPHEMERIS_TYPE":"0","ELEMENT_SET_NO":"999","APOAPSIS":"355.059","FILE":"3362094","BSTAR":"-0.00594260000000","GP_ID":"198925399"}];
